OBJECT_NAME,OBJECT_ID,EPOCH,MEAN_MOTION,ECCENTRICITY,INCLINATION,RA_OF_ASC_NODE,ARG_OF_PERICENTER,MEAN_ANOMALY,EPHEMERIS_TYPE,CLASSIFICATION_TYPE,NORAD_CAT_ID,ELEMENT_SET_NO,REV_AT_EPOCH,BSTAR,MEAN_MOTION_DOT,MEAN_MOTION_DDOT
ONEWEB-0130,2020-100U,2026-07-11T10:23:56.611104,13.12441617,.00019142,87.8998,345.8320,100.5832,259.5513,0,U,47276,999,26782,.37941443E-3,.149E-5,0
ONEWEB-0131,2020-100V,2026-07-11T10:19:04.100448,13.12441192,.00018185,87.8957,345.8481,100.3166,259.8168,0,U,47277,999,26786,.48102605E-3,.186E-5,0
ONEWEB-0132,2020-100W,2026-07-11T09:10:44.426496,13.12442934,.00019107,87.8960,345.8597,100.0917,260.0427,0,U,47278,999,26775,-.11383958E-2,-.397E-5,0
ONEWEB-0133,2020-100X,2026-07-11T11:24:43.339104,13.12444562,.00017962,87.8971,345.8201,99.2244,260.9088,0,U,47279,999,26792,.20789424E-3,.88E-6,0
ONEWEB-0134,2020-100Y,2026-07-10T09:04:03.828576,13.12442246,.00019881,87.8967,346.0354,102.4100,257.7251,0,U,47280,999,26775,-.9595864E-3,-.332E-5,0
ONEWEB-0135,2020-100Z,2026-07-11T11:49:19.656768,13.12442919,.00019619,87.8957,345.8335,105.1217,255.0129,0,U,47281,999,26792,.11918696E-2,.442E-5,0
ONEWEB-0136,2020-100AA,2026-07-11T10:26:22.555392,13.12441204,.00019485,87.8970,345.8284,104.3305,255.8040,0,U,47282,999,26784,.21413291E-3,.9E-6,0
ONEWEB-0137,2020-100AB,2026-07-11T11:15:09.761472,13.12444689,.00018465,87.8970,345.8331,91.7151,268.4189,0,U,47283,999,26775,-.38913755E-3,-.127E-5,0
ONEWEB-0138,2020-100AC,2026-07-11T08:53:40.165728,13.12441773,.00020034,87.8969,345.8569,100.0887,260.0468,0,U,47284,999,26782,-.8639038E-3,-.298E-5,0
ONEWEB-0139,2020-100AD,2026-07-11T11:42:13.168224,13.12443353,.00018312,87.8965,345.8199,96.1094,264.0243,0,U,47285,999,26791,.12503888E-2,.463E-5,0
ONEWEB-0140,2020-100AE,2026-07-11T08:46:21.014400,13.12441458,.000168,87.8970,345.8351,100.1574,259.9744,0,U,47286,999,26786,-.46701705E-3,-.155E-5,0
ONEWEB-0141,2020-100AF,2026-07-11T11:41:48.511392,13.12443319,.0001974,87.8971,345.8162,87.3735,272.7620,0,U,47287,999,26786,.117247E-2,.435E-5,0
ONEWEB-0142,2020-100AG,2026-07-11T11:25:07.923360,13.12445074,.00021462,87.8958,345.8381,88.9073,271.2302,0,U,47288,999,26785,.24106241E-3,.99E-6,0
ONEWEB-0143,2020-100AH,2026-07-11T11:39:34.225920,13.12443966,.00018215,87.8962,345.8363,94.7783,265.3553,0,U,47289,999,26783,.85173351E-3,.319E-5,0
ONEWEB-0144,2020-100AJ,2026-07-11T09:08:18.356928,13.12442496,.00021875,87.8965,345.8322,98.7383,261.3994,0,U,47290,999,26774,-.96792797E-3,-.335E-5,0
ONEWEB-0145,2020-100AK,2026-07-11T12:06:24.257088,13.12442405,.00024665,87.8948,345.8316,97.9263,262.2146,0,U,47291,999,26795,.74750459E-3,.282E-5,0
ONEWEB-0146,2020-100AL,2026-07-11T10:11:44.835936,13.12442098,.00015166,87.8968,345.8423,96.6670,263.4631,0,U,47292,999,26785,.93280507E-3,.348E-5,0
ONEWEB-0147,2020-100AM,2026-07-11T11:12:43.618464,13.12444109,.00018753,87.8966,345.8158,100.1861,259.9479,0,U,47293,999,26775,-.55907409E-3,-.188E-5,0
ONEWEB-0115,2021-025A,2026-07-11T18:44:43.679040,13.13471118,.00019433,87.8975,315.3296,102.7041,257.4306,0,U,48042,999,25682,.31774546E-3,.129E-5,0
ONEWEB-0152,2021-025B,2026-07-11T17:14:33.519264,13.13475368,.00020496,87.9008,315.3404,150.7170,209.4074,0,U,48043,999,25677,.3353226E-2,.1238E-4,0
ONEWEB-0153,2021-025C,2026-07-11T18:32:33.508320,13.13469904,.00020017,87.8975,315.3295,96.4472,263.6885,0,U,48044,999,25677,-.73007277E-4,-.14E-6,0
ONEWEB-0154,2021-025D,2026-07-11T18:27:41.109120,13.13470543,.00019059,87.9001,315.3299,103.8628,256.2713,0,U,48045,999,25673,-.13555299E-3,-.37E-6,0
ONEWEB-0116,2021-025E,2026-07-11T17:34:03.526464,13.13468892,.00018277,87.8986,315.3343,100.6327,259.5008,0,U,48046,999,25687,.893491E-6,.13E-6,0
ONEWEB-0150,2021-025F,2026-07-11T18:49:38.083584,13.13470161,.00019224,87.8993,315.3223,96.8765,263.2583,0,U,48047,999,25677,.73691488E-3,.282E-5,0
ONEWEB-0107,2021-025G,2026-07-11T18:52:04.926432,13.13472353,.00021466,87.8984,315.3169,97.7293,262.4080,0,U,48048,999,25675,.77709203E-3,.297E-5,0
ONEWEB-0101,2021-025H,2026-07-11T17:58:26.101344,13.13470541,.00020884,87.8975,315.3372,101.4504,258.6860,0,U,48049,999,25672,-.84730755E-3,-.297E-5,0
ONEWEB-0113,2021-025J,2026-07-11T18:22:08.164992,13.13891488,.0001878,87.8977,315.2417,94.4406,265.6938,0,U,48050,999,25683,-.60272592E-3,-.209E-5,0
ONEWEB-0112,2021-025K,2026-07-11T17:09:41.276448,13.13469293,.00021638,87.8987,315.3291,102.1418,257.9954,0,U,48051,999,25681,.80835003E-3,.308E-5,0
ONEWEB-0156,2021-025L,2026-07-11T17:21:52.319808,13.13471327,.00020288,87.8987,315.3370,96.8341,263.3019,0,U,48052,999,25679,.62339473E-3,.24E-5,0
ONEWEB-0161,2021-025M,2026-07-11T18:34:59.732544,13.13469696,.00021867,87.8998,315.3294,99.1098,261.0278,0,U,48053,999,25673,.37906894E-4,.27E-6,0
