[
  {
    "name": "ONEWEB-0130",
    "noradId": "47276",
    "line1": "1 47276U 20100U   26192.43329411  .00000149  00000+0  37941-3 0  9996",
    "line2": "2 47276  87.8998 345.8320 0001914 100.5832 259.5513 13.12441617267821"
  },
  {
    "name": "ONEWEB-0131",
    "noradId": "47277",
    "line1": "1 47277U 20100V   26192.42990857  .00000186  00000+0  48103-3 0  9997",
    "line2": "2 47277  87.8957 345.8481 0001818 100.3166 259.8168 13.12441192267867"
  },
  {
    "name": "ONEWEB-0132",
    "noradId": "47278",
    "line1": "1 47278U 20100W   26192.38245864 -.00000397  00000+0 -11384-2 0  9990",
    "line2": "2 47278  87.8960 345.8597 0001910 100.0917 260.0427 13.12442934267759"
  },
  {
    "name": "ONEWEB-0133",
    "noradId": "47279",
    "line1": "1 47279U 20100X   26192.47550161  .00000088  00000+0  20789-3 0  9995",
    "line2": "2 47279  87.8971 345.8201 0001796  99.2244 260.9088 13.12444562267928"
  },
  {
    "name": "ONEWEB-0134",
    "noradId": "47280",
    "line1": "1 47280U 20100Y   26191.37782209 -.00000332  00000+0 -95959-3 0  9990",
    "line2": "2 47280  87.8967 346.0354 0001988 102.4100 257.7251 13.12442246267752"
  },
  {
    "name": "ONEWEB-0135",
    "noradId": "47281",
    "line1": "1 47281U 20100Z   26192.49258862  .00000442  00000+0  11919-2 0  9991",
    "line2": "2 47281  87.8957 345.8335 0001961 105.1217 255.0129 13.12442919267929"
  },
  {
    "name": "ONEWEB-0136",
    "noradId": "47282",
    "line1": "1 47282U 20100AA  26192.43498328  .00000090  00000+0  21413-3 0  9999",
    "line2": "2 47282  87.8970 345.8284 0001948 104.3305 255.8040 13.12441204267849"
  },
  {
    "name": "ONEWEB-0137",
    "noradId": "47283",
    "line1": "1 47283U 20100AB  26192.46886298 -.00000127  00000+0 -38914-3 0  9997",
    "line2": "2 47283  87.8970 345.8331 0001846  91.7151 268.4189 13.12444689267752"
  },
  {
    "name": "ONEWEB-0138",
    "noradId": "47284",
    "line1": "1 47284U 20100AC  26192.37060377 -.00000298  00000+0 -86390-3 0  9990",
    "line2": "2 47284  87.8969 345.8569 0002003 100.0887 260.0468 13.12441773267827"
  },
  {
    "name": "ONEWEB-0139",
    "noradId": "47285",
    "line1": "1 47285U 20100AD  26192.48765241  .00000463  00000+0  12504-2 0  9992",
    "line2": "2 47285  87.8965 345.8199 0001831  96.1094 264.0243 13.12443353267917"
  },
  {
    "name": "ONEWEB-0140",
    "noradId": "47286",
    "line1": "1 47286U 20100AE  26192.36552100 -.00000155  00000+0 -46702-3 0  9996",
    "line2": "2 47286  87.8970 345.8351 0001680 100.1574 259.9744 13.12441458267862"
  },
  {
    "name": "ONEWEB-0141",
    "noradId": "47287",
    "line1": "1 47287U 20100AF  26192.48736703  .00000435  00000+0  11725-2 0  9998",
    "line2": "2 47287  87.8971 345.8162 0001974  87.3735 272.7620 13.12443319267869"
  },
  {
    "name": "ONEWEB-0142",
    "noradId": "47288",
    "line1": "1 47288U 20100AG  26192.47578615  .00000099  00000+0  24106-3 0  9998",
    "line2": "2 47288  87.8958 345.8381 0002146  88.9073 271.2302 13.12445074267852"
  },
  {
    "name": "ONEWEB-0143",
    "noradId": "47289",
    "line1": "1 47289U 20100AH  26192.48581280  .00000319  00000+0  85173-3 0  9998",
    "line2": "2 47289  87.8962 345.8363 0001821  94.7783 265.3553 13.12443966267838"
  },
  {
    "name": "ONEWEB-0144",
    "noradId": "47290",
    "line1": "1 47290U 20100AJ  26192.38076802 -.00000335  00000+0 -96793-3 0  9998",
    "line2": "2 47290  87.8965 345.8322 0002187  98.7383 261.3994 13.12442496267746"
  },
  {
    "name": "ONEWEB-0145",
    "noradId": "47291",
    "line1": "1 47291U 20100AK  26192.50444742  .00000282  00000+0  74750-3 0  9993",
    "line2": "2 47291  87.8948 345.8316 0002466  97.9263 262.2146 13.12442405267951"
  },
  {
    "name": "ONEWEB-0146",
    "noradId": "47292",
    "line1": "1 47292U 20100AL  26192.42482449  .00000348  00000+0  93281-3 0  9994",
    "line2": "2 47292  87.8968 345.8423 0001516  96.6670 263.4631 13.12442098267855"
  },
  {
    "name": "ONEWEB-0147",
    "noradId": "47293",
    "line1": "1 47293U 20100AM  26192.46717151 -.00000188  00000+0 -55907-3 0  9997",
    "line2": "2 47293  87.8966 345.8158 0001875 100.1861 259.9479 13.12444109267754"
  },
  {
    "name": "ONEWEB-0115",
    "noradId": "48042",
    "line1": "1 48042U 21025A   26192.78106110  .00000129  00000+0  31775-3 0  9999",
    "line2": "2 48042  87.8975 315.3296 0001943 102.7041 257.4306 13.13471118256825"
  },
  {
    "name": "ONEWEB-0152",
    "noradId": "48043",
    "line1": "1 48043U 21025B   26192.71844351  .00001238  00000+0  33532-2 0  9993",
    "line2": "2 48043  87.9008 315.3404 0002049 150.7170 209.4074 13.13475368256773"
  },
  {
    "name": "ONEWEB-0153",
    "noradId": "48044",
    "line1": "1 48044U 21025C   26192.77261005 -.00000014  00000+0 -73007-4 0  9995",
    "line2": "2 48044  87.8975 315.3295 0002001  96.4472 263.6885 13.13469904256774"
  },
  {
    "name": "ONEWEB-0154",
    "noradId": "48045",
    "line1": "1 48045U 21025D   26192.76922580 -.00000037  00000+0 -13555-3 0  9993",
    "line2": "2 48045  87.9001 315.3299 0001905 103.8628 256.2713 13.13470543256733"
  },
  {
    "name": "ONEWEB-0116",
    "noradId": "48046",
    "line1": "1 48046U 21025E   26192.73198526  .00000013  00000+0  89349-6 0  9995",
    "line2": "2 48046  87.8986 315.3343 0001827 100.6327 259.5008 13.13468892256871"
  },
  {
    "name": "ONEWEB-0150",
    "noradId": "48047",
    "line1": "1 48047U 21025F   26192.78446856  .00000282  00000+0  73691-3 0  9991",
    "line2": "2 48047  87.8993 315.3223 0001922  96.8765 263.2583 13.13470161256776"
  },
  {
    "name": "ONEWEB-0107",
    "noradId": "48048",
    "line1": "1 48048U 21025G   26192.78616813  .00000297  00000+0  77709-3 0  9994",
    "line2": "2 48048  87.8984 315.3169 0002146  97.7293 262.4080 13.13472353256757"
  },
  {
    "name": "ONEWEB-0101",
    "noradId": "48049",
    "line1": "1 48049U 21025H   26192.74891321 -.00000297  00000+0 -84731-3 0  9995",
    "line2": "2 48049  87.8975 315.3372 0002088 101.4504 258.6860 13.13470541256724"
  },
  {
    "name": "ONEWEB-0113",
    "noradId": "48050",
    "line1": "1 48050U 21025J   26192.76537228 -.00000209  00000+0 -60273-3 0  9990",
    "line2": "2 48050  87.8977 315.2417 0001878  94.4406 265.6938 13.13891488256838"
  },
  {
    "name": "ONEWEB-0112",
    "noradId": "48051",
    "line1": "1 48051U 21025K   26192.71506107  .00000308  00000+0  80835-3 0  9992",
    "line2": "2 48051  87.8987 315.3291 0002163 102.1418 257.9954 13.13469293256814"
  },
  {
    "name": "ONEWEB-0156",
    "noradId": "48052",
    "line1": "1 48052U 21025L   26192.72352222  .00000240  00000+0  62339-3 0  9995",
    "line2": "2 48052  87.8987 315.3370 0002028  96.8341 263.3019 13.13471327256798"
  },
  {
    "name": "ONEWEB-0161",
    "noradId": "48053",
    "line1": "1 48053U 21025M   26192.77430246  .00000027  00000+0  37907-4 0  9991",
    "line2": "2 48053  87.8998 315.3294 0002186  99.1098 261.0278 13.13469696256738"
  }
]